start=new Date('2022-06-21T00:00:00.000Z').valueOf();
sats=[{"MEAN_MOTION":"15.06393799","FILE":"3498404","OBJECT_TYPE":"PAYLOAD","EPHEMERIS_TYPE":"0","PERIAPSIS":"546.430","TLE_LINE2":"2 47665  53.0566  22.6240 0001159  96.7581 263.3540 15.06393799 75662","CENTER_NAME":"EARTH","SITE":"AFETR","APOAPSIS":"548.035","SEMIMAJOR_AXIS":"6925.368","GP_ID":"206513862","OBJECT_ID":"2021-012AX","EPOCH":"2022-06-20T18:23:21.110784","MEAN_ELEMENT_THEORY":"SGP4","MEAN_MOTION_DDOT":"0.0000000000000","NORAD_CAT_ID":"47665","RA_OF_ASC_NODE":"22.6240","LAUNCH_DATE":"2021-02-16","DECAY_DATE":null,"TIME_SYSTEM":"UTC","ARG_OF_PERICENTER":"96.7581","PERIOD":"95.593","ELEMENT_SET_NO":"999","INCLINATION":"53.0566","RCS_SIZE":"LARGE","TLE_LINE1":"1 47665U 21012AX  22171.76621656 -.00000469  00000-0 -12592-4 0  9990","REF_FRAME":"TEME","BSTAR":"-0.00001259200000","COUNTRY_CODE":"US","MEAN_MOTION_DOT":"-0.00000469","OBJECT_NAME":"STARLINK-2056","REV_AT_EPOCH":"7566","ECCENTRICITY":"0.00011590","MEAN_ANOMALY":"263.3540","CLASSIFICATION_TYPE":"U"},{"DECAY_DATE":null,"TIME_SYSTEM":"UTC","ARG_OF_PERICENTER":"62.7224","PERIOD":"95.592","ELEMENT_SET_NO":"999","INCLINATION":"53.0566","RCS_SIZE":"LARGE","TLE_LINE1":"1 47666U 21012AY  22171.82891097  .00001081  00000-0  91482-4 0  9990","REF_FRAME":"TEME","BSTAR":"0.00009148200000","COUNTRY_CODE":"US","MEAN_MOTION_DOT":"0.00001081","OBJECT_NAME":"STARLINK-2057","REV_AT_EPOCH":"7567","MEAN_ANOMALY":"297.3939","ECCENTRICITY":"0.00017120","CLASSIFICATION_TYPE":"U","MEAN_MOTION":"15.06394562","FILE":"3498404","OBJECT_TYPE":"PAYLOAD","EPHEMERIS_TYPE":"0","PERIAPSIS":"546.045","SITE":"AFETR","TLE_LINE2":"2 47666  53.0566  22.6507 0001712  62.7224 297.3939 15.06394562 75670","CENTER_NAME":"EARTH","APOAPSIS":"548.416","GP_ID":"206512625","SEMIMAJOR_AXIS":"6925.365","OBJECT_ID":"2021-012AY","EPOCH":"2022-06-20T19:53:37.907808","MEAN_ELEMENT_THEORY":"SGP4","MEAN_MOTION_DDOT":"0.0000000000000","NORAD_CAT_ID":"47666","RA_OF_ASC_NODE":"22.6507","LAUNCH_DATE":"2021-02-16"},{"REV_AT_EPOCH":"7531","OBJECT_NAME":"STARLINK-2058","MEAN_MOTION_DOT":"-0.00001012","CLASSIFICATION_TYPE":"U","MEAN_ANOMALY":"300.3685","ECCENTRICITY":"0.00015860","RCS_SIZE":"LARGE","INCLINATION":"53.0539","ELEMENT_SET_NO":"999","PERIOD":"95.593","ARG_OF_PERICENTER":"59.7460","TIME_SYSTEM":"UTC","DECAY_DATE":null,"COUNTRY_CODE":"US","BSTAR":"-0.00004906700000","REF_FRAME":"TEME","TLE_LINE1":"1 47667U 21012AZ  22171.88369332 -.00001012  00000-0 -49067-4 0  9997","EPOCH":"2022-06-20T21:12:31.102848","MEAN_ELEMENT_THEORY":"SGP4","LAUNCH_DATE":"2021-02-16","NORAD_CAT_ID":"47667","RA_OF_ASC_NODE":"47.0626","MEAN_MOTION_DDOT":"0.0000000000000","EPHEMERIS_TYPE":"0","OBJECT_TYPE":"PAYLOAD","FILE":"3498404","MEAN_MOTION":"15.06393795","OBJECT_ID":"2021-012AZ","SEMIMAJOR_AXIS":"6925.368","GP_ID":"206512874","APOAPSIS":"548.331","CENTER_NAME":"EARTH","TLE_LINE2":"2 47667  53.0539  47.0626 0001586  59.7460 300.3685 15.06393795 75312","SITE":"AFETR","PERIAPSIS":"546.134"},{"NORAD_CAT_ID":"47668","RA_OF_ASC_NODE":"27.1510","MEAN_MOTION_DDOT":"0.0000000000000","LAUNCH_DATE":"2021-02-16","EPOCH":"2022-06-20T20:38:01.709664","MEAN_ELEMENT_THEORY":"SGP4","TLE_LINE2":"2 47668  53.0567  27.1510 0001526  74.2081 285.9076 15.06397487 75617","SITE":"AFETR","CENTER_NAME":"EARTH","PERIAPSIS":"546.164","OBJECT_ID":"2021-012BA","GP_ID":"206513118","SEMIMAJOR_AXIS":"6925.356","APOAPSIS":"548.278","MEAN_MOTION":"15.06397487","FILE":"3498404","EPHEMERIS_TYPE":"0","OBJECT_TYPE":"PAYLOAD","CLASSIFICATION_TYPE":"U","MEAN_ANOMALY":"285.9076","ECCENTRICITY":"0.00015260","REV_AT_EPOCH":"7561","OBJECT_NAME":"STARLINK-2059","MEAN_MOTION_DOT":"-0.00000187","TLE_LINE1":"1 47668U 21012BA  22171.85974201 -.00000187  00000-0  63226-5 0  9997","COUNTRY_CODE":"US","BSTAR":"0.00000632260000","REF_FRAME":"TEME","ARG_OF_PERICENTER":"74.2081","TIME_SYSTEM":"UTC","DECAY_DATE":null,"RCS_SIZE":"LARGE","INCLINATION":"53.0567","ELEMENT_SET_NO":"999","PERIOD":"95.592"},{"REF_FRAME":"TEME","BSTAR":"0.00111250000000","COUNTRY_CODE":"US","TLE_LINE1":"1 47669U 21012BB  22171.53037123  .00017494  00000-0  11125-2 0  9992","PERIOD":"95.434","ELEMENT_SET_NO":"999","INCLINATION":"53.0542","RCS_SIZE":"LARGE","DECAY_DATE":null,"TIME_SYSTEM":"UTC","ARG_OF_PERICENTER":"163.0314","ECCENTRICITY":"0.00014760","MEAN_ANOMALY":"197.0726","CLASSIFICATION_TYPE":"U","MEAN_MOTION_DOT":"0.00017494","OBJECT_NAME":"STARLINK-2060","REV_AT_EPOCH":"7659","APOAPSIS":"540.574","SEMIMAJOR_AXIS":"6917.688","GP_ID":"206513362","OBJECT_ID":"2021-012BB","PERIAPSIS":"538.532","CENTER_NAME":"EARTH","TLE_LINE2":"2 47669  53.0542 312.9710 0001476 163.0314 197.0726 15.08903023 76592","SITE":"AFETR","OBJECT_TYPE":"PAYLOAD","EPHEMERIS_TYPE":"0","FILE":"3498404","MEAN_MOTION":"15.08903023","LAUNCH_DATE":"2021-02-16","MEAN_MOTION_DDOT":"0.0000000000000","NORAD_CAT_ID":"47669","RA_OF_ASC_NODE":"312.9710","EPOCH":"2022-06-20T12:43:44.074272","MEAN_ELEMENT_THEORY":"SGP4"},{"REV_AT_EPOCH":"7560","OBJECT_NAME":"STARLINK-2062","MEAN_MOTION_DOT":"-0.00000029","CLASSIFICATION_TYPE":"U","ECCENTRICITY":"0.00024790","MEAN_ANOMALY":"293.4858","ARG_OF_PERICENTER":"66.6392","TIME_SYSTEM":"UTC","DECAY_DATE":null,"RCS_SIZE":"LARGE","INCLINATION":"53.0552","ELEMENT_SET_NO":"999","PERIOD":"95.592","TLE_LINE1":"1 47670U 21012BC  22171.87448080 -.00000029  00000-0  16953-4 0  9992","COUNTRY_CODE":"US","BSTAR":"0.00001695300000","REF_FRAME":"TEME","EPOCH":"2022-06-20T20:59:15.141120","MEAN_ELEMENT_THEORY":"SGP4","NORAD_CAT_ID":"47670","RA_OF_ASC_NODE":"27.0811","MEAN_MOTION_DDOT":"0.0000000000000","LAUNCH_DATE":"2021-02-16","MEAN_MOTION":"15.06402305","FILE":"3498404","EPHEMERIS_TYPE":"0","OBJECT_TYPE":"PAYLOAD","SITE":"AFETR","TLE_LINE2":"2 47670  53.0552  27.0811 0002479  66.6392 293.4858 15.06402305 75602","CENTER_NAME":"EARTH","PERIAPSIS":"545.490","OBJECT_ID":"2021-012BC","SEMIMAJOR_AXIS":"6925.341","GP_ID":"206512125","APOAPSIS":"548.923"},{"NORAD_CAT_ID":"47671","RA_OF_ASC_NODE":"27.1652","MEAN_MOTION_DDOT":"0.0000000000000","LAUNCH_DATE":"2021-02-16","EPOCH":"2022-06-20T20:32:42.707040","MEAN_ELEMENT_THEORY":"SGP4","PERIAPSIS":"546.208","CENTER_NAME":"EARTH","TLE_LINE2":"2 47671  53.0542  27.1652 0001447  76.4612 283.6538 15.06400998 75617","SITE":"AFETR","SEMIMAJOR_AXIS":"6925.345","GP_ID":"206512374","OBJECT_ID":"2021-012BD","APOAPSIS":"548.213","FILE":"3498404","MEAN_MOTION":"15.06400998","OBJECT_TYPE":"PAYLOAD","EPHEMERIS_TYPE":"0","ECCENTRICITY":"0.00014470","MEAN_ANOMALY":"283.6538","CLASSIFICATION_TYPE":"U","REV_AT_EPOCH":"7561","MEAN_MOTION_DOT":"0.00000810","OBJECT_NAME":"STARLINK-2064","TLE_LINE1":"1 47671U 21012BD  22171.85604985  .00000810  00000-0  73236-4 0  9993","BSTAR":"0.00007323600000","COUNTRY_CODE":"US","REF_FRAME":"TEME","TIME_SYSTEM":"UTC","ARG_OF_PERICENTER":"76.4612","DECAY_DATE":null,"INCLINATION":"53.0542","RCS_SIZE":"LARGE","PERIOD":"95.592","ELEMENT_SET_NO":"999"},{"REV_AT_EPOCH":"7572","MEAN_MOTION_DOT":"0.00000560","OBJECT_NAME":"STARLINK-2065","MEAN_ANOMALY":"279.6858","ECCENTRICITY":"0.00015740","CLASSIFICATION_TYPE":"U","INCLINATION":"53.0574","RCS_SIZE":"LARGE","PERIOD":"95.592","ELEMENT_SET_NO":"999","TIME_SYSTEM":"UTC","ARG_OF_PERICENTER":"80.4308","DECAY_DATE":null,"BSTAR":"0.00005650000000","COUNTRY_CODE":"US","REF_FRAME":"TEME","TLE_LINE1":"1 47672U 21012BE  22171.83485754  .00000560  00000-0  56500-4 0  9990","MEAN_ELEMENT_THEORY":"SGP4","EPOCH":"2022-06-20T20:02:11.691456","LAUNCH_DATE":"2021-02-16","NORAD_CAT_ID":"47672","RA_OF_ASC_NODE":"17.2696","MEAN_MOTION_DDOT":"0.0000000000000","OBJECT_TYPE":"PAYLOAD","EPHEMERIS_TYPE":"0","FILE":"3498404","MEAN_MOTION":"15.06401576","GP_ID":"206513619","SEMIMAJOR_AXIS":"6925.344","OBJECT_ID":"2021-012BE","APOAPSIS":"548.299","PERIAPSIS":"546.119","TLE_LINE2":"2 47672  53.0574  17.2696 0001574  80.4308 279.6858 15.06401576 75724","CENTER_NAME":"EARTH","SITE":"AFETR"},{"MEAN_MOTION_DDOT":"0.0000000000000","NORAD_CAT_ID":"47673","RA_OF_ASC_NODE":"27.0855","LAUNCH_DATE":"2021-02-16","MEAN_ELEMENT_THEORY":"SGP4","EPOCH":"2022-06-20T21:04:34.004640","SITE":"AFETR","TLE_LINE2":"2 47673  53.0555  27.0855 0001711  58.1552 301.9603 15.06397260 75604","CENTER_NAME":"EARTH","PERIAPSIS":"546.037","APOAPSIS":"548.407","OBJECT_ID":"2021-012BF","GP_ID":"206513863","SEMIMAJOR_AXIS":"6925.357","FILE":"3498404","MEAN_MOTION":"15.06397260","EPHEMERIS_TYPE":"0","OBJECT_TYPE":"PAYLOAD","CLASSIFICATION_TYPE":"U","ECCENTRICITY":"0.00017110","MEAN_ANOMALY":"301.9603","OBJECT_NAME":"STARLINK-2066","MEAN_MOTION_DOT":"-0.00000496","REV_AT_EPOCH":"7560","TLE_LINE1":"1 47673U 21012BF  22171.87817135 -.00000496  00000-0 -14402-4 0  9992","REF_FRAME":"TEME","COUNTRY_CODE":"US","BSTAR":"-0.00001440200000","DECAY_DATE":null,"ARG_OF_PERICENTER":"58.1552","TIME_SYSTEM":"UTC","ELEMENT_SET_NO":"999","PERIOD":"95.592","RCS_SIZE":"LARGE","INCLINATION":"53.0555"},{"LAUNCH_DATE":"2021-02-16","NORAD_CAT_ID":"47674","RA_OF_ASC_NODE":"26.9919","MEAN_MOTION_DDOT":"0.0000000000000","MEAN_ELEMENT_THEORY":"SGP4","EPOCH":"2022-06-20T21:24:26.294400","SEMIMAJOR_AXIS":"6925.346","GP_ID":"206512626","OBJECT_ID":"2021-012BG","APOAPSIS":"548.348","PERIAPSIS":"546.075","CENTER_NAME":"EARTH","TLE_LINE2":"2 47674  53.0566  26.9919 0001641  70.7771 289.3395 15.06400767 75616","SITE":"AFETR","OBJECT_TYPE":"PAYLOAD","EPHEMERIS_TYPE":"0","MEAN_MOTION":"15.06400767","FILE":"3498404","ECCENTRICITY":"0.00016410","MEAN_ANOMALY":"289.3395","CLASSIFICATION_TYPE":"U","REV_AT_EPOCH":"7561","MEAN_MOTION_DOT":"-0.00000725","OBJECT_NAME":"STARLINK-2067","BSTAR":"-0.00002976600000","COUNTRY_CODE":"US","REF_FRAME":"TEME","TLE_LINE1":"1 47674U 21012BG  22171.89197100 -.00000725  00000-0 -29766-4 0  9992","INCLINATION":"53.0566","RCS_SIZE":"LARGE","PERIOD":"95.592","ELEMENT_SET_NO":"999","TIME_SYSTEM":"UTC","ARG_OF_PERICENTER":"70.7771","DECAY_DATE":null}];
